start=new Date('2022-10-16T00:00:00.000Z').valueOf();
sats=[{"MEAN_MOTION":"15.06409178","GP_ID":"215202566","MEAN_ELEMENT_THEORY":"SGP4","INCLINATION":"53.0547","ELEMENT_SET_NO":"999","OBJECT_ID":"2020-001J","NORAD_CAT_ID":"44922","BSTAR":"0.00023806000000","MEAN_MOTION_DDOT":"0.0000000000000","COUNTRY_CODE":"US","TIME_SYSTEM":"UTC","PERIAPSIS":"546.278","OBJECT_NAME":"STARLINK-1104","TLE_LINE1":"1 44922U 20001J   22288.05206609  .00003267  00000-0  23806-3 0  9994","REV_AT_EPOCH":"15270","DECAY_DATE":null,"TLE_LINE2":"2 44922  53.0547 160.5529 0001311 100.5268 259.5868 15.06409178152702","REF_FRAME":"TEME","RCS_SIZE":"LARGE","CENTER_NAME":"EARTH","LAUNCH_DATE":"2020-01-07","OBJECT_TYPE":"PAYLOAD","FILE":"3614916","RA_OF_ASC_NODE":"160.5529","MEAN_ANOMALY":"259.5868","EPHEMERIS_TYPE":"0","SEMIMAJOR_AXIS":"6925.320","APOAPSIS":"548.093","ECCENTRICITY":"0.00013110","PERIOD":"95.592","CLASSIFICATION_TYPE":"U","EPOCH":"2022-10-15T01:14:58.510176","MEAN_MOTION_DOT":"0.00003267","ARG_OF_PERICENTER":"100.5268","SITE":"AFETR"},{"FILE":"3615679","RA_OF_ASC_NODE":"158.0558","MEAN_ANOMALY":"255.4368","EPHEMERIS_TYPE":"0","SEMIMAJOR_AXIS":"6925.318","APOAPSIS":"548.189","CLASSIFICATION_TYPE":"U","PERIOD":"95.592","ECCENTRICITY":"0.00014530","EPOCH":"2022-10-15T14:36:26.095104","MEAN_MOTION_DOT":"0.00000941","ARG_OF_PERICENTER":"104.6782","SITE":"AFETR","MEAN_MOTION":"15.06410044","GP_ID":"215244499","MEAN_ELEMENT_THEORY":"SGP4","INCLINATION":"53.0545","ELEMENT_SET_NO":"999","OBJECT_ID":"2020-001K","NORAD_CAT_ID":"44923","MEAN_MOTION_DDOT":"0.0000000000000","BSTAR":"0.00008202800000","COUNTRY_CODE":"US","PERIAPSIS":"546.177","TIME_SYSTEM":"UTC","TLE_LINE1":"1 44923U 20001K   22288.60863536  .00000941  00000-0  82028-4 0  9992","OBJECT_NAME":"STARLINK-1106","DECAY_DATE":null,"REV_AT_EPOCH":"15278","REF_FRAME":"TEME","TLE_LINE2":"2 44923  53.0545 158.0558 0001453 104.6782 255.4368 15.06410044152780","CENTER_NAME":"EARTH","RCS_SIZE":"LARGE","LAUNCH_DATE":"2020-01-07","OBJECT_TYPE":"PAYLOAD"},{"LAUNCH_DATE":"2020-01-07","OBJECT_TYPE":"PAYLOAD","CENTER_NAME":"EARTH","RCS_SIZE":"LARGE","OBJECT_NAME":"STARLINK-1111","TLE_LINE1":"1 44924U 20001L   22288.66392456 -.00000127  00000-0  10366-4 0  9990","REV_AT_EPOCH":"15279","DECAY_DATE":null,"REF_FRAME":"TEME","TLE_LINE2":"2 44924  53.0558 157.8158 0001120 107.0996 253.0116 15.06398217152796","COUNTRY_CODE":"US","TIME_SYSTEM":"UTC","PERIAPSIS":"546.443","NORAD_CAT_ID":"44924","MEAN_MOTION_DDOT":"0.0000000000000","BSTAR":"0.00001036600000","ELEMENT_SET_NO":"999","OBJECT_ID":"2020-001L","MEAN_ELEMENT_THEORY":"SGP4","INCLINATION":"53.0558","MEAN_MOTION":"15.06398217","GP_ID":"215244750","SITE":"AFETR","MEAN_MOTION_DOT":"-0.00000127","ARG_OF_PERICENTER":"107.0996","EPOCH":"2022-10-15T15:56:03.081984","APOAPSIS":"547.995","PERIOD":"95.592","CLASSIFICATION_TYPE":"U","ECCENTRICITY":"0.00011200","EPHEMERIS_TYPE":"0","SEMIMAJOR_AXIS":"6925.354","FILE":"3615679","RA_OF_ASC_NODE":"157.8158","MEAN_ANOMALY":"253.0116"},{"OBJECT_TYPE":"PAYLOAD","LAUNCH_DATE":"2020-01-07","CENTER_NAME":"EARTH","RCS_SIZE":"LARGE","REV_AT_EPOCH":"15278","DECAY_DATE":null,"TLE_LINE2":"2 44925  53.0552 158.0296 0001449 103.2677 256.8473 15.06404234152788","REF_FRAME":"TEME","TLE_LINE1":"1 44925U 20001M   22288.61233028  .00001030  00000-0  88056-4 0  9999","OBJECT_NAME":"STARLINK-1112","PERIAPSIS":"546.197","TIME_SYSTEM":"UTC","COUNTRY_CODE":"US","NORAD_CAT_ID":"44925","BSTAR":"0.00008805600000","MEAN_MOTION_DDOT":"0.0000000000000","OBJECT_ID":"2020-001M","ELEMENT_SET_NO":"999","INCLINATION":"53.0552","MEAN_ELEMENT_THEORY":"SGP4","MEAN_MOTION":"15.06404234","GP_ID":"215245000","SITE":"AFETR","MEAN_MOTION_DOT":"0.00001030","ARG_OF_PERICENTER":"103.2677","EPOCH":"2022-10-15T14:41:45.336192","PERIOD":"95.592","CLASSIFICATION_TYPE":"U","ECCENTRICITY":"0.00014490","APOAPSIS":"548.204","EPHEMERIS_TYPE":"0","SEMIMAJOR_AXIS":"6925.336","RA_OF_ASC_NODE":"158.0296","MEAN_ANOMALY":"256.8473","FILE":"3615679"},{"NORAD_CAT_ID":"44926","MEAN_MOTION_DDOT":"0.0000000000000","BSTAR":"0.00019846000000","OBJECT_ID":"2020-001N","ELEMENT_SET_NO":"999","INCLINATION":"53.0006","MEAN_ELEMENT_THEORY":"SGP4","MEAN_MOTION":"15.05587862","GP_ID":"215243749","OBJECT_TYPE":"PAYLOAD","LAUNCH_DATE":"2020-01-07","RCS_SIZE":"LARGE","CENTER_NAME":"EARTH","DECAY_DATE":null,"REV_AT_EPOCH":"15349","REF_FRAME":"TEME","TLE_LINE2":"2 44926  53.0006 157.7197 0001571 113.6649 246.4504 15.05587862153496","OBJECT_NAME":"STARLINK-1113","TLE_LINE1":"1 44926U 20001N   22288.68563515  .00002614  00000-0  19846-3 0  9993","PERIAPSIS":"548.615","TIME_SYSTEM":"UTC","COUNTRY_CODE":"US","ECCENTRICITY":"0.00015710","PERIOD":"95.644","CLASSIFICATION_TYPE":"U","APOAPSIS":"550.792","EPHEMERIS_TYPE":"0","SEMIMAJOR_AXIS":"6927.839","RA_OF_ASC_NODE":"157.7197","MEAN_ANOMALY":"246.4504","FILE":"3615679","SITE":"AFETR","MEAN_MOTION_DOT":"0.00002614","ARG_OF_PERICENTER":"113.6649","EPOCH":"2022-10-15T16:27:18.876960"},{"EPOCH":"2022-10-15T14:57:41.053248","SITE":"AFETR","ARG_OF_PERICENTER":"106.4081","MEAN_MOTION_DOT":"-0.00000005","SEMIMAJOR_AXIS":"6925.351","EPHEMERIS_TYPE":"0","FILE":"3615679","MEAN_ANOMALY":"253.7055","RA_OF_ASC_NODE":"157.9728","APOAPSIS":"548.140","CLASSIFICATION_TYPE":"U","PERIOD":"95.592","ECCENTRICITY":"0.00013340","TLE_LINE1":"1 44927U 20001P   22288.62339182 -.00000005  00000-0  18562-4 0  9997","OBJECT_NAME":"STARLINK-1114","REF_FRAME":"TEME","TLE_LINE2":"2 44927  53.0540 157.9728 0001334 106.4081 253.7055 15.06399160152796","DECAY_DATE":null,"REV_AT_EPOCH":"15279","COUNTRY_CODE":"US","PERIAPSIS":"546.292","TIME_SYSTEM":"UTC","LAUNCH_DATE":"2020-01-07","OBJECT_TYPE":"PAYLOAD","RCS_SIZE":"LARGE","CENTER_NAME":"EARTH","MEAN_ELEMENT_THEORY":"SGP4","INCLINATION":"53.0540","GP_ID":"215243999","MEAN_MOTION":"15.06399160","BSTAR":"0.00001856200000","MEAN_MOTION_DDOT":"0.0000000000000","NORAD_CAT_ID":"44927","ELEMENT_SET_NO":"999","OBJECT_ID":"2020-001P"},{"ARG_OF_PERICENTER":"94.8161","MEAN_MOTION_DOT":"0.00001512","SITE":"AFETR","EPOCH":"2022-10-15T18:03:26.687808","APOAPSIS":"548.143","PERIOD":"95.592","CLASSIFICATION_TYPE":"U","ECCENTRICITY":"0.00013480","FILE":"3615679","MEAN_ANOMALY":"265.2982","RA_OF_ASC_NODE":"157.3989","SEMIMAJOR_AXIS":"6925.344","EPHEMERIS_TYPE":"0","CENTER_NAME":"EARTH","RCS_SIZE":"LARGE","LAUNCH_DATE":"2020-01-07","OBJECT_TYPE":"PAYLOAD","COUNTRY_CODE":"US","TIME_SYSTEM":"UTC","PERIAPSIS":"546.276","TLE_LINE1":"1 44928U 20001Q   22288.75239222  .00001512  00000-0  12037-3 0  9999","OBJECT_NAME":"STARLINK-1119","REF_FRAME":"TEME","TLE_LINE2":"2 44928  53.0556 157.3989 0001348  94.8161 265.2982 15.06401421152815","DECAY_DATE":null,"REV_AT_EPOCH":"15281","ELEMENT_SET_NO":"999","OBJECT_ID":"2020-001Q","MEAN_MOTION_DDOT":"0.0000000000000","BSTAR":"0.00012037000000","NORAD_CAT_ID":"44928","GP_ID":"215245250","MEAN_MOTION":"15.06401421","MEAN_ELEMENT_THEORY":"SGP4","INCLINATION":"53.0556"},{"COUNTRY_CODE":"US","TIME_SYSTEM":"UTC","PERIAPSIS":"546.252","TLE_LINE1":"1 44929U 20001R   22288.80400033 -.00001028  00000-0 -50124-4 0  9990","OBJECT_NAME":"STARLINK-1121","REF_FRAME":"TEME","TLE_LINE2":"2 44929  53.0539 157.1687 0001399 101.1416 258.9730 15.06397459152816","REV_AT_EPOCH":"15281","DECAY_DATE":null,"RCS_SIZE":"LARGE","CENTER_NAME":"EARTH","LAUNCH_DATE":"2020-01-07","OBJECT_TYPE":"PAYLOAD","GP_ID":"215245501","MEAN_MOTION":"15.06397459","MEAN_ELEMENT_THEORY":"SGP4","INCLINATION":"53.0539","ELEMENT_SET_NO":"999","OBJECT_ID":"2020-001R","BSTAR":"-0.00005012400000","MEAN_MOTION_DDOT":"0.0000000000000","NORAD_CAT_ID":"44929","EPOCH":"2022-10-15T19:17:45.628512","ARG_OF_PERICENTER":"101.1416","MEAN_MOTION_DOT":"-0.00001028","SITE":"AFETR","FILE":"3615679","MEAN_ANOMALY":"258.9730","RA_OF_ASC_NODE":"157.1687","SEMIMAJOR_AXIS":"6925.356","EPHEMERIS_TYPE":"0","APOAPSIS":"548.190","ECCENTRICITY":"0.00013990","PERIOD":"95.592","CLASSIFICATION_TYPE":"U"},{"SEMIMAJOR_AXIS":"6925.318","EPHEMERIS_TYPE":"0","MEAN_ANOMALY":"255.7165","RA_OF_ASC_NODE":"157.3325","FILE":"3615679","PERIOD":"95.592","CLASSIFICATION_TYPE":"U","ECCENTRICITY":"0.00011820","APOAPSIS":"548.002","EPOCH":"2022-10-15T18:29:58.516224","SITE":"AFETR","ARG_OF_PERICENTER":"104.3956","MEAN_MOTION_DOT":"0.00002460","INCLINATION":"53.0549","MEAN_ELEMENT_THEORY":"SGP4","GP_ID":"215244250","MEAN_MOTION":"15.06409853","MEAN_MOTION_DDOT":"0.0000000000000","BSTAR":"0.00018396000000","NORAD_CAT_ID":"44930","OBJECT_ID":"2020-001S","ELEMENT_SET_NO":"999","TLE_LINE2":"2 44930  53.0549 157.3325 0001182 104.3956 255.7165 15.06409853152813","REF_FRAME":"TEME","REV_AT_EPOCH":"15281","DECAY_DATE":null,"TLE_LINE1":"1 44930U 20001S   22288.77081616  .00002460  00000-0  18396-3 0  9993","OBJECT_NAME":"STARLINK-1123","TIME_SYSTEM":"UTC","PERIAPSIS":"546.365","COUNTRY_CODE":"US","OBJECT_TYPE":"PAYLOAD","LAUNCH_DATE":"2020-01-07","RCS_SIZE":"LARGE","CENTER_NAME":"EARTH"},{"MEAN_ELEMENT_THEORY":"SGP4","INCLINATION":"53.0527","MEAN_MOTION":"15.10498459","GP_ID":"215222342","NORAD_CAT_ID":"44931","MEAN_MOTION_DDOT":"0.0000000000000","BSTAR":"0.00028336000000","ELEMENT_SET_NO":"999","OBJECT_ID":"2020-001T","TLE_LINE1":"1 44931U 20001T   22288.76375305  .00004431  00000-0  28336-3 0  9999","OBJECT_NAME":"STARLINK-1128","DECAY_DATE":null,"REV_AT_EPOCH":"15367","TLE_LINE2":"2 44931  53.0527 148.4461 0001342 101.3317 258.7824 15.10498459153673","REF_FRAME":"TEME","COUNTRY_CODE":"US","TIME_SYSTEM":"UTC","PERIAPSIS":"533.753","LAUNCH_DATE":"2020-01-07","OBJECT_TYPE":"PAYLOAD","CENTER_NAME":"EARTH","RCS_SIZE":"LARGE","EPHEMERIS_TYPE":"0","SEMIMAJOR_AXIS":"6912.816","FILE":"3615474","RA_OF_ASC_NODE":"148.4461","MEAN_ANOMALY":"258.7824","APOAPSIS":"535.608","PERIOD":"95.333","CLASSIFICATION_TYPE":"U","ECCENTRICITY":"0.00013420","EPOCH":"2022-10-15T18:19:48.263520","SITE":"AFETR","MEAN_MOTION_DOT":"0.00004431","ARG_OF_PERICENTER":"101.3317"}];
